IRIDIUM 7               
1 24793U 97020B   25006.91504762  .00000877  00000+0  29725-3 0  9999
2 24793  86.3946 244.4476 0001752  80.8997 279.2398 14.35705728448750
IRIDIUM 5               
1 24795U 97020D   25006.87586221  .00007043  00000+0  61260-3 0  9998
2 24795  86.3929 157.9543 0113912 357.4939   2.5702 14.91844263461398
IRIDIUM 4               
1 24796U 97020E   25006.72165232  .00000895  00000+0  29781-3 0  9998
2 24796  86.3945 241.5106 0001996  80.7000 279.4422 14.36617392449283
IRIDIUM 914             
1 24836U 97030A   25007.38144676  .00001006  00000+0  30973-3 0  9996
2 24836  86.3922 250.3238 0003368  60.0930 300.0604 14.40589615446073
IRIDIUM 16              
1 24841U 97030F   25007.44900576  .00001018  00000+0  32747-3 0  9992
2 24841  86.4024 272.8120 0001093 161.7088 198.4150 14.38453705444157
IRIDIUM 911             
1 24842U 97030G   25007.45889291  .00001430  00000+0  38538-3 0  9996
2 24842  86.4450 271.7427 0012071 276.1238  83.8589 14.47281212451811
IRIDIUM 17              
1 24870U 97034B   25007.12821490  .00001262  00000+0  41466-3 0  9999
2 24870  86.3965 302.5090 0002574 122.7887 237.3559 14.37561070440446
IRIDIUM 920             
1 24871U 97034C   25007.16813760  .00001207  00000+0  36764-3 0  9999
2 24871  86.3970 282.0791 0009365 251.2870 108.7313 14.41268944443641
